CZ-2C R/B               
1 54039U 22132E   26048.49779044  .00044493  00000+0  54416-3 0  9991
2 54039  97.2955  51.2322 0019609 157.4378 202.7746 15.60047949187228
GSLV R/B                
1 54149U 22138AN  26048.39556134  .00003564  00000+0  30931-3 0  9991
2 54149  87.3873 173.1523 0020032 220.7105 139.2631 14.96614791180896
XRISM                   
1 57800U 23137A   26048.36537525  .00005671  00000+0  32328-3 0  9991
2 57800  31.0028  55.0911 0008247 197.0097 163.0265 15.11241447134710
ACS3                    
1 59588U 24077B   26048.47395242  .00021687  00000+0  17793-1 0  9992
2 59588  97.2180 354.1304 0047989 136.0955 224.4037 13.88741164 91397
SZ-21 MODULE            
1 66515U 25246C   26048.17866810  .00037852  00000+0  34761-3 0  9997
2 66515  41.4766 329.4655 0001967 297.4736  62.5905 15.66957917 14859
